COSMOS 2251 DEB         
1 35589U 93036AMG 17346.34430728  .00004935  00000-0  22630-3 0  9990
2 35589  73.9703 113.9640 0090566   7.9637 352.2970 15.17082961465051
